[{"OBJECT_NAME":"SHIJIAN-6 01B (SJ-6 01B)","OBJECT_ID":"2004-035B","EPOCH":"2026-03-09T23:36:14.904576","MEAN_MOTION":15.05644225,"ECCENTRICITY":0.00063174,"INCLINATION":97.6149,"RA_OF_ASC_NODE":88.1348,"ARG_OF_PERICENTER":111.8734,"MEAN_ANOMALY":248.3165,"EPHEMERIS_TYPE":0,"CLASSIFICATION_TYPE":"U","NORAD_CAT_ID":28414,"ELEMENT_SET_NO":999,"REV_AT_EPOCH":17189,"BSTAR":0.00017015082,"MEAN_MOTION_DOT":2.395e-5,"MEAN_MOTION_DDOT":0},{"OBJECT_NAME":"STARLINK-5007","OBJECT_ID":"2023-099AP","EPOCH":"2026-03-09T11:10:41.989728","MEAN_MOTION":15.02535272,"ECCENTRICITY":0.00013072,"INCLINATION":43.0023,"RA_OF_ASC_NODE":237.0891,"ARG_OF_PERICENTER":266.7567,"MEAN_ANOMALY":93.3126,"EPHEMERIS_TYPE":0,"CLASSIFICATION_TYPE":"U","NORAD_CAT_ID":57365,"ELEMENT_SET_NO":999,"REV_AT_EPOCH":14623,"BSTAR":1.6932005e-5,"MEAN_MOTION_DOT":2.5e-7,"MEAN_MOTION_DDOT":0}]
